ONEWEB-0578             
1 56067U 23043X   25143.49416893  .00000049  00000+0  87251-4 0  9994
2 56067  87.9244 321.6954 0001919  88.7519 271.3835 13.21825211106752
ONEWEB-0579             
1 56068U 23043Y   25143.56040072  .00000070  00000+0  13698-3 0  9992
2 56068  87.9241 321.6689 0001549  96.0600 264.0710 13.21825009106775
ONEWEB-0581             
1 56069U 23043Z   25143.74185065  .00000194  00000+0  47355-3 0  9999
2 56069  87.9016 306.4185 0001488  81.2584 278.8716 13.16594897108624
ONEWEB-0609             
1 56070U 23043AA  25143.54206156  .00000079  00000+0  17672-3 0  9995
2 56070  87.9048 336.8834 0001802  92.5498 267.5839 13.15549696105206
ONEWEB-0613             
1 56071U 23043AB  25143.53730930  .00000108  00000+0  25377-3 0  9991
2 56071  87.9052 336.8942 0001563  92.7891 267.3418 13.15549041105200
ONEWEB-0630             
1 56072U 23043AC  25143.53255668  .00000186  00000+0  46036-3 0  9993
2 56072  87.9048 336.8738 0001588  98.2225 261.9085 13.15549940105194
ONEWEB-0632             
1 56073U 23043AD  25143.52779954  .00000191  00000+0  47374-3 0  9994
2 56073  87.9047 336.8945 0001586  84.1828 275.9483 13.15550459105199
ONEWEB-0633             
1 56074U 23043AE  25143.52145884  .00000219  00000+0  54741-3 0  9991
2 56074  87.9043 336.8646 0001687 104.2637 255.8681 13.15550355105178
